[{"OBJECT_NAME":"STARLINK-34971","OBJECT_ID":"2025-179X","EPOCH":"2026-03-09T17:10:08.234112","MEAN_MOTION":15.0565359,"ECCENTRICITY":0.00010742,"INCLINATION":97.6028,"RA_OF_ASC_NODE":113.0124,"ARG_OF_PERICENTER":111.6129,"MEAN_ANOMALY":248.5213,"EPHEMERIS_TYPE":0,"CLASSIFICATION_TYPE":"U","NORAD_CAT_ID":65256,"ELEMENT_SET_NO":999,"REV_AT_EPOCH":3155,"BSTAR":0.00024395888,"MEAN_MOTION_DOT":3.461e-5,"MEAN_MOTION_DDOT":0},{"OBJECT_NAME":"ELECTRON KICK STAGE R\/B","OBJECT_ID":"2025-050C","EPOCH":"2026-03-09T00:02:16.856736","MEAN_MOTION":15.02509392,"ECCENTRICITY":0.00035941,"INCLINATION":42.0177,"RA_OF_ASC_NODE":293.46,"ARG_OF_PERICENTER":187.3175,"MEAN_ANOMALY":172.76,"EPHEMERIS_TYPE":0,"CLASSIFICATION_TYPE":"U","NORAD_CAT_ID":63207,"ELEMENT_SET_NO":999,"REV_AT_EPOCH":5391,"BSTAR":0.00054837611,"MEAN_MOTION_DOT":7.227e-5,"MEAN_MOTION_DDOT":0}]
